[{"OBJECT_NAME":"BRO-11","OBJECT_ID":"2023-174J","EPOCH":"2026-03-09T23:01:09.890400","MEAN_MOTION":15.26267731,"ECCENTRICITY":0.00104518,"INCLINATION":97.3961,"RA_OF_ASC_NODE":146.7679,"ARG_OF_PERICENTER":189.9892,"MEAN_ANOMALY":170.1141,"EPHEMERIS_TYPE":0,"CLASSIFICATION_TYPE":"U","NORAD_CAT_ID":58264,"ELEMENT_SET_NO":999,"REV_AT_EPOCH":12961,"BSTAR":0.00032296323,"MEAN_MOTION_DOT":8.313e-5,"MEAN_MOTION_DDOT":0},{"OBJECT_NAME":"STARLINK-31462","OBJECT_ID":"2024-068M","EPOCH":"2026-03-09T07:08:34.580544","MEAN_MOTION":15.27573671,"ECCENTRICITY":0.00010212,"INCLINATION":43.0044,"RA_OF_ASC_NODE":36.6411,"ARG_OF_PERICENTER":282.5463,"MEAN_ANOMALY":77.5275,"EPHEMERIS_TYPE":0,"CLASSIFICATION_TYPE":"U","NORAD_CAT_ID":59466,"ELEMENT_SET_NO":999,"REV_AT_EPOCH":10846,"BSTAR":1.5534729e-5,"MEAN_MOTION_DOT":1.65e-6,"MEAN_MOTION_DDOT":0}]
